OBJECT_NAME,OBJECT_ID,EPOCH,MEAN_MOTION,ECCENTRICITY,INCLINATION,RA_OF_ASC_NODE,ARG_OF_PERICENTER,MEAN_ANOMALY,EPHEMERIS_TYPE,CLASSIFICATION_TYPE,NORAD_CAT_ID,ELEMENT_SET_NO,REV_AT_EPOCH,BSTAR,MEAN_MOTION_DOT,MEAN_MOTION_DDOT
SHIJIAN-29A (SJ-29A),2025-315A,2026-06-06T23:26:41.054784,1.00270055,.0003322,3.3709,95.3648,20.3911,204.5555,0,U,67302,999,151,0,-.53E-6,0
SHIJIAN-29B (SJ-29B),2025-315C,2026-06-06T23:26:41.106624,1.00268683,.0003596,3.3698,95.3579,25.1091,199.8886,0,U,67403,999,158,0,-.53E-6,0
ELEKTRO-L 5,2026-028A,2026-06-06T01:57:52.418016,1.00271280,.00015717,0.2722,307.9769,182.5314,229.5122,0,U,67756,999,114,0,-.85E-6,0
JAM-E JAM 1,2026-028B,2026-06-06T22:11:03.827040,1.00271197,.00008267,0.2827,299.2057,300.7228,22.0715,0,U,67757,999,101,0,.169E-5,0
ECHOSTAR 25,2026-045A,2026-06-06T21:30:20.104992,1.00269698,.0001217,0.0148,351.3504,99.7109,16.8375,0,U,68126,999,89,0,0,0
