SHIJIAN-29A (SJ-29A)    
1 67302U 25315A   26157.97686406 -.00000053  00000+0  00000+0 0  9998
2 67302   3.3709  95.3648 0003322  20.3911 204.5555  1.00270055  1516
SHIJIAN-29B (SJ-29B)    
1 67403U 25315C   26157.97686466 -.00000053  00000+0  00000+0 0  9996
2 67403   3.3698  95.3579 0003596  25.1091 199.8886  1.00268683  1587
ELEKTRO-L 5             
1 67756U 26028A   26157.08185669 -.00000085  00000+0  00000+0 0  9995
2 67756   0.2722 307.9769 0001571 182.5314 229.5122  1.00271280  1145
JAM-E JAM 1             
1 67757U 26028B   26157.92434985  .00000169  00000+0  00000+0 0  9999
2 67757   0.2827 299.2057 0000826 300.7228  22.0715  1.00271197  1012
ECHOSTAR 25             
1 68126U 26045A   26157.89606603  .00000000  00000+0  00000+0 0  9997
2 68126   0.0148 351.3504 0001217  99.7109  16.8375  1.00269698   893
